[
  {
    "CCSDS_OMM_VERS": "2.0",
    "COMMENT": "GENERATED VIA SPACE-TRACK.ORG API",
    "CREATION_DATE": "2013-02-11T13:10:50",
    "ORIGINATOR": "18 SPCS",
    "OBJECT_NAME": "LANDSAT 8",
    "OBJECT_ID": "2013-008A",
    "CENTER_NAME": "EARTH",
    "REF_FRAME": "TEME",
    "TIME_SYSTEM": "UTC",
    "MEAN_ELEMENT_THEORY": "SGP4",
    "EPOCH": "2013-02-11T19:01:55.474751",
    "MEAN_MOTION": "14.65419619",
    "ECCENTRICITY": "0.001209",
    "INCLINATION": "98.2453",
    "RA_OF_ASC_NODE": "114.7482",
    "ARG_OF_PERICENTER": "299.5876",
    "MEAN_ANOMALY": "60.2426",
    "EPHEMERIS_TYPE": "0",
    "CLASSIFICATION_TYPE": "U",
    "NORAD_CAT_ID": "39084",
    "ELEMENT_SET_NO": "999",
    "REV_AT_EPOCH": "0",
    "BSTAR": "0",
    "MEAN_MOTION_DOT": "-0.0000005",
    "MEAN_MOTION_DDOT": "0",
    "TLE_LINE0": "0 LANDSAT 8",
    "TLE_LINE1": "1 39084U 13008A   13042.79300318 -.00000050  00000-0  00000+0 0  9992",
    "TLE_LINE2": "2 39084 098.2453 114.7482 0012090 299.5876 060.2426 14.65419619    08",
    "SEMIMAJOR_AXIS": "7053.870",
    "PERIOD": "98.265",
    "APOAPSIS": "684.263",
    "PERIAPSIS": "667.207",
    "OBJECT_TYPE": "PAYLOAD",
    "DECAYED": "0"
  },
  {
    "CCSDS_OMM_VERS": "2.0",
    "COMMENT": "GENERATED VIA SPACE-TRACK.ORG API",
    "CREATION_DATE": "2013-02-11T13:16:11",
    "ORIGINATOR": "18 SPCS",
    "OBJECT_NAME": "LANDSAT 8",
    "OBJECT_ID": "2013-008A",
    "CENTER_NAME": "EARTH",
    "REF_FRAME": "TEME",
    "TIME_SYSTEM": "UTC",
    "MEAN_ELEMENT_THEORY": "SGP4",
    "EPOCH": "2013-02-11T19:01:55.474751",
    "MEAN_MOTION": "14.65419619",
    "ECCENTRICITY": "0.001209",
    "INCLINATION": "98.2453",
    "RA_OF_ASC_NODE": "114.7482",
    "ARG_OF_PERICENTER": "299.5876",
    "MEAN_ANOMALY": "60.2426",
    "EPHEMERIS_TYPE": "0",
    "CLASSIFICATION_TYPE": "U",
    "NORAD_CAT_ID": "39084",
    "ELEMENT_SET_NO": "999",
    "REV_AT_EPOCH": "0",
    "BSTAR": "0",
    "MEAN_MOTION_DOT": "-0.0000005",
    "MEAN_MOTION_DDOT": "0",
    "TLE_LINE0": "0 LANDSAT 8",
    "TLE_LINE1": "1 39084U 13008A   13042.79300318 -.00000050  00000-0  00000+0 0  9992",
    "TLE_LINE2": "2 39084 098.2453 114.7482 0012090 299.5876 060.2426 14.65419619    08",
    "SEMIMAJOR_AXIS": "7053.870",
    "PERIOD": "98.265",
    "APOAPSIS": "684.263",
    "PERIAPSIS": "667.207",
    "OBJECT_TYPE": "PAYLOAD",
    "DECAYED": "0"
  },
  {
    "CCSDS_OMM_VERS": "2.0",
    "COMMENT": "GENERATED VIA SPACE-TRACK.ORG API",
    "CREATION_DATE": "2013-02-11T14:09:50",
    "ORIGINATOR": "18 SPCS",
    "OBJECT_NAME": "LANDSAT 8",
    "OBJECT_ID": "2013-008A",
    "CENTER_NAME": "EARTH",
    "REF_FRAME": "TEME",
    "TIME_SYSTEM": "UTC",
    "MEAN_ELEMENT_THEORY": "SGP4",
    "EPOCH": "2013-02-11T20:40:17.684255",
    "MEAN_MOTION": "14.65163483",
    "ECCENTRICITY": "0.0011286",
    "INCLINATION": "98.2456",
    "RA_OF_ASC_NODE": "114.8162",
    "ARG_OF_PERICENTER": "293.1947",
    "MEAN_ANOMALY": "66.776",
    "EPHEMERIS_TYPE": "0",
    "CLASSIFICATION_TYPE": "U",
    "NORAD_CAT_ID": "39084",
    "ELEMENT_SET_NO": "999",
    "REV_AT_EPOCH": "0",
    "BSTAR": "0",
    "MEAN_MOTION_DOT": "-0.00000049",
    "MEAN_MOTION_DDOT": "0",
    "TLE_LINE0": "0 LANDSAT 8",
    "TLE_LINE1": "1 39084U 13008A   13042.86131579 -.00000049  00000-0  00000+0 0  9999",
    "TLE_LINE2": "2 39084 098.2456 114.8162 0011286 293.1947 066.7760 14.65163483    09",
    "SEMIMAJOR_AXIS": "7054.692",
    "PERIOD": "98.283",
    "APOAPSIS": "684.519",
    "PERIAPSIS": "668.595",
    "OBJECT_TYPE": "PAYLOAD",
    "DECAYED": "0"
  },
  {
    "CCSDS_OMM_VERS": "2.0",
    "COMMENT": "GENERATED VIA SPACE-TRACK.ORG API",
    "CREATION_DATE": "2013-02-11T14:45:00",
    "ORIGINATOR": "18 SPCS",
    "OBJECT_NAME": "LANDSAT 8",
    "OBJECT_ID": "2013-008A",
    "CENTER_NAME": "EARTH",
    "REF_FRAME": "TEME",
    "TIME_SYSTEM": "UTC",
    "MEAN_ELEMENT_THEORY": "SGP4",
    "EPOCH": "2013-02-11T20:40:18.187967",
    "MEAN_MOTION": "14.65157221",
    "ECCENTRICITY": "0.0011286",
    "INCLINATION": "98.2456",
    "RA_OF_ASC_NODE": "114.8162",
    "ARG_OF_PERICENTER": "293.1947",
    "MEAN_ANOMALY": "66.8056",
    "EPHEMERIS_TYPE": "0",
    "CLASSIFICATION_TYPE": "U",
    "NORAD_CAT_ID": "39084",
    "ELEMENT_SET_NO": "999",
    "REV_AT_EPOCH": "0",
    "BSTAR": "0",
    "MEAN_MOTION_DOT": "-0.00000049",
    "MEAN_MOTION_DDOT": "0",
    "TLE_LINE0": "0 LANDSAT 8",
    "TLE_LINE1": "1 39084U 13008A   13042.86132162 -.00000049  00000-0  00000+0 0  9998",
    "TLE_LINE2": "2 39084 098.2456 114.8162 0011286 293.1947 066.8056 14.65157221    01",
    "SEMIMAJOR_AXIS": "7054.712",
    "PERIOD": "98.283",
    "APOAPSIS": "684.539",
    "PERIAPSIS": "668.615",
    "OBJECT_TYPE": "PAYLOAD",
    "DECAYED": "0"
  },
  {
    "CCSDS_OMM_VERS": "2.0",
    "COMMENT": "GENERATED VIA SPACE-TRACK.ORG API",
    "CREATION_DATE": "2013-02-11T23:25:55",
    "ORIGINATOR": "18 SPCS",
    "OBJECT_NAME": "LANDSAT 8",
    "OBJECT_ID": "2013-008A",
    "CENTER_NAME": "EARTH",
    "REF_FRAME": "TEME",
    "TIME_SYSTEM": "UTC",
    "MEAN_ELEMENT_THEORY": "SGP4",
    "EPOCH": "2013-02-12T01:35:19.667903",
    "MEAN_MOTION": "14.65139557",
    "ECCENTRICITY": "0.001137",
    "INCLINATION": "98.2453",
    "RA_OF_ASC_NODE": "115.0223",
    "ARG_OF_PERICENTER": "292.6434",
    "MEAN_ANOMALY": "67.3442",
    "EPHEMERIS_TYPE": "0",
    "CLASSIFICATION_TYPE": "U",
    "NORAD_CAT_ID": "39084",
    "ELEMENT_SET_NO": "999",
    "REV_AT_EPOCH": "4",
    "BSTAR": "0",
    "MEAN_MOTION_DOT": "-0.00000049",
    "MEAN_MOTION_DDOT": "0",
    "TLE_LINE0": "0 LANDSAT 8",
    "TLE_LINE1": "1 39084U 13008A   13043.06619986 -.00000049  00000-0  00000+0 0  9995",
    "TLE_LINE2": "2 39084 098.2453 115.0223 0011370 292.6434 067.3442 14.65139557    49",
    "SEMIMAJOR_AXIS": "7054.769",
    "PERIOD": "98.284",
    "APOAPSIS": "684.655",
    "PERIAPSIS": "668.613",
    "OBJECT_TYPE": "PAYLOAD",
    "DECAYED": "0"
  },
  {
    "CCSDS_OMM_VERS": "2.0",
    "COMMENT": "GENERATED VIA SPACE-TRACK.ORG API",
    "CREATION_DATE": "2013-02-12T15:21:36",
    "ORIGINATOR": "18 SPCS",
    "OBJECT_NAME": "LANDSAT 8",
    "OBJECT_ID": "2013-008A",
    "CENTER_NAME": "EARTH",
    "REF_FRAME": "TEME",
    "TIME_SYSTEM": "UTC",
    "MEAN_ELEMENT_THEORY": "SGP4",
    "EPOCH": "2013-02-12T19:37:06.430655",
    "MEAN_MOTION": "14.65127385",
    "ECCENTRICITY": "0.0011606",
    "INCLINATION": "98.2431",
    "RA_OF_ASC_NODE": "115.7754",
    "ARG_OF_PERICENTER": "288.9092",
    "MEAN_ANOMALY": "71.0771",
    "EPHEMERIS_TYPE": "0",
    "CLASSIFICATION_TYPE": "U",
    "NORAD_CAT_ID": "39084",
    "ELEMENT_SET_NO": "999",
    "REV_AT_EPOCH": "15",
    "BSTAR": "0",
    "MEAN_MOTION_DOT": "-0.00000049",
    "MEAN_MOTION_DDOT": "0",
    "TLE_LINE0": "0 LANDSAT 8",
    "TLE_LINE1": "1 39084U 13008A   13043.81743554 -.00000049  00000-0  00000+0 0  9997",
    "TLE_LINE2": "2 39084 098.2431 115.7754 0011606 288.9092 071.0771 14.65127385   156",
    "SEMIMAJOR_AXIS": "7054.808",
    "PERIOD": "98.285",
    "APOAPSIS": "684.861",
    "PERIAPSIS": "668.485",
    "OBJECT_TYPE": "PAYLOAD",
    "DECAYED": "0"
  },
  {
    "CCSDS_OMM_VERS": "2.0",
    "COMMENT": "GENERATED VIA SPACE-TRACK.ORG API",
    "CREATION_DATE": "2013-02-12T16:38:30",
    "ORIGINATOR": "18 SPCS",
    "OBJECT_NAME": "LANDSAT 8",
    "OBJECT_ID": "2013-008A",
    "CENTER_NAME": "EARTH",
    "REF_FRAME": "TEME",
    "TIME_SYSTEM": "UTC",
    "MEAN_ELEMENT_THEORY": "SGP4",
    "EPOCH": "2013-02-12T19:37:06.430655",
    "MEAN_MOTION": "14.65127385",
    "ECCENTRICITY": "0.0011606",
    "INCLINATION": "98.2431",
    "RA_OF_ASC_NODE": "115.7754",
    "ARG_OF_PERICENTER": "288.9092",
    "MEAN_ANOMALY": "71.0771",
    "EPHEMERIS_TYPE": "0",
    "CLASSIFICATION_TYPE": "U",
    "NORAD_CAT_ID": "39084",
    "ELEMENT_SET_NO": "999",
    "REV_AT_EPOCH": "15",
    "BSTAR": "0",
    "MEAN_MOTION_DOT": "-0.00000049",
    "MEAN_MOTION_DDOT": "0",
    "TLE_LINE0": "0 LANDSAT 8",
    "TLE_LINE1": "1 39084U 13008A   13043.81743554 -.00000049  00000-0  00000+0 0  9997",
    "TLE_LINE2": "2 39084 098.2431 115.7754 0011606 288.9092 071.0771 14.65127385   156",
    "SEMIMAJOR_AXIS": "7054.808",
    "PERIOD": "98.285",
    "APOAPSIS": "684.861",
    "PERIAPSIS": "668.485",
    "OBJECT_TYPE": "PAYLOAD",
    "DECAYED": "0"
  },
  {
    "CCSDS_OMM_VERS": "2.0",
    "COMMENT": "GENERATED VIA SPACE-TRACK.ORG API",
    "CREATION_DATE": "2013-02-13T10:11:22",
    "ORIGINATOR": "18 SPCS",
    "OBJECT_NAME": "LANDSAT 8",
    "OBJECT_ID": "2013-008A",
    "CENTER_NAME": "EARTH",
    "REF_FRAME": "TEME",
    "TIME_SYSTEM": "UTC",
    "MEAN_ELEMENT_THEORY": "SGP4",
    "EPOCH": "2013-02-13T13:38:53.227968",
    "MEAN_MOTION": "14.65127964",
    "ECCENTRICITY": "0.0011649",
    "INCLINATION": "98.243",
    "RA_OF_ASC_NODE": "116.5284",
    "ARG_OF_PERICENTER": "286.9824",
    "MEAN_ANOMALY": "73.0106",
    "EPHEMERIS_TYPE": "0",
    "CLASSIFICATION_TYPE": "U",
    "NORAD_CAT_ID": "39084",
    "ELEMENT_SET_NO": "999",
    "REV_AT_EPOCH": "26",
    "BSTAR": "0",
    "MEAN_MOTION_DOT": "-0.00000049",
    "MEAN_MOTION_DDOT": "0",
    "TLE_LINE0": "0 LANDSAT 8",
    "TLE_LINE1": "1 39084U 13008A   13044.56867162 -.00000049  00000-0  00000+0 0  9992",
    "TLE_LINE2": "2 39084 098.2430 116.5284 0011649 286.9824 073.0106 14.65127964   269",
    "SEMIMAJOR_AXIS": "7054.806",
    "PERIOD": "98.285",
    "APOAPSIS": "684.889",
    "PERIAPSIS": "668.453",
    "OBJECT_TYPE": "PAYLOAD",
    "DECAYED": "0"
  },
  {
    "CCSDS_OMM_VERS": "2.0",
    "COMMENT": "GENERATED VIA SPACE-TRACK.ORG API",
    "CREATION_DATE": "2013-02-14T08:49:59",
    "ORIGINATOR": "18 SPCS",
    "OBJECT_NAME": "LANDSAT 8",
    "OBJECT_ID": "2013-008A",
    "CENTER_NAME": "EARTH",
    "REF_FRAME": "TEME",
    "TIME_SYSTEM": "UTC",
    "MEAN_ELEMENT_THEORY": "SGP4",
    "EPOCH": "2013-02-14T07:40:39.948383",
    "MEAN_MOTION": "14.65127476",
    "ECCENTRICITY": "0.0011586",
    "INCLINATION": "98.243",
    "RA_OF_ASC_NODE": "117.2813",
    "ARG_OF_PERICENTER": "284.3615",
    "MEAN_ANOMALY": "75.6303",
    "EPHEMERIS_TYPE": "0",
    "CLASSIFICATION_TYPE": "U",
    "NORAD_CAT_ID": "39084",
    "ELEMENT_SET_NO": "999",
    "REV_AT_EPOCH": "37",
    "BSTAR": "0",
    "MEAN_MOTION_DOT": "-0.00000049",
    "MEAN_MOTION_DDOT": "0",
    "TLE_LINE0": "0 LANDSAT 8",
    "TLE_LINE1": "1 39084U 13008A   13045.31990681 -.00000049  00000-0  00000+0 0  9999",
    "TLE_LINE2": "2 39084 098.2430 117.2813 0011586 284.3615 075.6303 14.65127476   372",
    "SEMIMAJOR_AXIS": "7054.808",
    "PERIOD": "98.285",
    "APOAPSIS": "684.846",
    "PERIAPSIS": "668.499",
    "OBJECT_TYPE": "PAYLOAD",
    "DECAYED": "0"
  },
  {
    "CCSDS_OMM_VERS": "2.0",
    "COMMENT": "GENERATED VIA SPACE-TRACK.ORG API",
    "CREATION_DATE": "2013-02-14T08:50:02",
    "ORIGINATOR": "18 SPCS",
    "OBJECT_NAME": "LANDSAT 8",
    "OBJECT_ID": "2013-008A",
    "CENTER_NAME": "EARTH",
    "REF_FRAME": "TEME",
    "TIME_SYSTEM": "UTC",
    "MEAN_ELEMENT_THEORY": "SGP4",
    "EPOCH": "2013-02-14T07:40:39.948383",
    "MEAN_MOTION": "14.65127476",
    "ECCENTRICITY": "0.0011586",
    "INCLINATION": "98.243",
    "RA_OF_ASC_NODE": "117.2813",
    "ARG_OF_PERICENTER": "284.3615",
    "MEAN_ANOMALY": "75.6303",
    "EPHEMERIS_TYPE": "0",
    "CLASSIFICATION_TYPE": "U",
    "NORAD_CAT_ID": "39084",
    "ELEMENT_SET_NO": "999",
    "REV_AT_EPOCH": "37",
    "BSTAR": "0",
    "MEAN_MOTION_DOT": "-0.00000049",
    "MEAN_MOTION_DDOT": "0",
    "TLE_LINE0": "0 LANDSAT 8",
    "TLE_LINE1": "1 39084U 13008A   13045.31990681 -.00000049  00000-0  00000+0 0  9999",
    "TLE_LINE2": "2 39084 098.2430 117.2813 0011586 284.3615 075.6303 14.65127476   372",
    "SEMIMAJOR_AXIS": "7054.808",
    "PERIOD": "98.285",
    "APOAPSIS": "684.846",
    "PERIAPSIS": "668.499",
    "OBJECT_TYPE": "PAYLOAD",
    "DECAYED": "0"
  }
]